{
    "links": {
        "self": "http://www.neowsapp.com/rest/v1/neo/3843089?api_key=iIulBulltgU6a56xZRHN4H3l9WmuAYTsLGpBGhQ2"
    },
    "id": "3843089",
    "neo_reference_id": "3843089",
    "name": "(2019 MR3)",
    "designation": "2019 MR3",
    "nasa_jpl_url": "http://ssd.jpl.nasa.gov/sbdb.cgi?sstr=3843089",
    "absolute_magnitude_h": 22.7,
    "estimated_diameter": {
        "kilometers": {
            "estimated_diameter_min": 0.0766575574,
            "estimated_diameter_max": 0.1714115092
        },
        "meters": {
            "estimated_diameter_min": 76.6575573531,
            "estimated_diameter_max": 171.4115092306
        },
        "miles": {
            "estimated_diameter_min": 0.0476327831,
            "estimated_diameter_max": 0.1065101409
        },
        "feet": {
            "estimated_diameter_min": 251.5011804664,
            "estimated_diameter_max": 562.3737359442
        }
    },
    "is_potentially_hazardous_asteroid": false,
    "close_approach_data": [
        {
            "close_approach_date": "2004-03-18",
            "close_approach_date_full": "2004-Mar-18 22:08",
            "epoch_date_close_approach": 1079647680000,
            "relative_velocity": {
                "kilometers_per_second": "7.8185178179",
                "kilometers_per_hour": "28146.6641443948",
                "miles_per_hour": "17489.2425068324"
            },
            "miss_distance": {
                "astronomical": "0.0381772823",
                "lunar": "14.8509628147",
                "kilometers": "5711240.114468701",
                "miles": "3548800.0470860338"
            },
            "orbiting_body": "Mars"
        },
        {
            "close_approach_date": "2019-07-02",
            "close_approach_date_full": "2019-Jul-02 17:58",
            "epoch_date_close_approach": 1562090280000,
            "relative_velocity": {
                "kilometers_per_second": "8.8331495849",
                "kilometers_per_hour": "31799.3385055868",
                "miles_per_hour": "19758.8723064298"
            },
            "miss_distance": {
                "astronomical": "0.2170043855",
                "lunar": "84.4147059595",
                "kilometers": "32463393.851458885",
                "miles": "20171817.559687213"
            },
            "orbiting_body": "Earth"
        },
        {
            "close_approach_date": "2027-06-25",
            "close_approach_date_full": "2027-Jun-25 00:55",
            "epoch_date_close_approach": 1813884900000,
            "relative_velocity": {
                "kilometers_per_second": "8.8330828475",
                "kilometers_per_hour": "31799.0982511267",
                "miles_per_hour": "19758.7230216515"
            },
            "miss_distance": {
                "astronomical": "0.1932361313",
                "lunar": "75.1688550757",
                "kilometers": "28907713.649520331",
                "miles": "17962420.3333133278"
            },
            "orbiting_body": "Earth"
        }
    ],
    "orbital_data": {
        "orbit_id": "4",
        "orbit_determination_date": "2019-07-23 02:50:14",
        "first_observation_date": "2019-06-30",
        "last_observation_date": "2019-07-10",
        "data_arc_in_days": 10,
        "observations_used": 38,
        "orbit_uncertainty": "7",
        "minimum_orbit_intersection": ".189416",
        "jupiter_tisserand_invariant": "4.767",
        "epoch_osculation": "2459000.5",
        "eccentricity": ".1224567231694713",
        "semi_major_axis": "1.371113735731655",
        "inclination": "17.37487206973467",
        "ascending_node_longitude": "276.8204118788348",
        "orbital_period": "586.4198321020892",
        "perihelion_distance": "1.203211640561304",
        "perihelion_argument": "347.4764994932133",
        "aphelion_distance": "1.539015830902006",
        "perihelion_time": "2459227.413833290342",
        "mean_anomaly": "220.6988107961839",
        "mean_motion": ".6138946541243987",
        "equinox": "J2000",
        "orbit_class": {
            "orbit_class_type": "AMO",
            "orbit_class_description": "Near-Earth asteroid orbits similar to that of 1221 Amor",
            "orbit_class_range": "1.017 AU < q (perihelion) < 1.3 AU"
        }
    },
    "is_sentry_object": false
}